{"type": "FeatureCollection", "features": [ {"type": "Feature", "properties": {"norad_id": 36539, "name": "COSMOS 2251 DEB", "group": "cosmos-2251-debris", "lat": 67.50874663477313, "lon": -172.17031839000933, "alt_km": 688.5380233989326, "timestamp": "2025-12-14T14:39:29.766517+00:00", "meta": {"OBJECT_NAME": "COSMOS 2251 DEB", "OBJECT_ID": "1993-036BCZ", "EPOCH": "2025-12-13T21:43:10.824960", "MEAN_MOTION": 14.59313879, "ECCENTRICITY": 0.00271357, "INCLINATION": 74.0243, "RA_OF_ASC_NODE": 52.957, "ARG_OF_PERICENTER": 197.955, "MEAN_ANOMALY": 162.0659, "EPHEMERIS_TYPE": 0, "CLASSIFICATION_TYPE": "U", "NORAD_CAT_ID": 36539, "ELEMENT_SET_NO": 999, "REV_AT_EPOCH": 83964, "BSTAR": 0.00083084857, "MEAN_MOTION_DOT": 3.92e-05, "MEAN_MOTION_DDOT": 0}, "tle": {"line1": "1 36539U 93036BCZ 25347.90498640  .00003920  00000+0  83085-3 0  9998", "line2": "2 36539  74.0243  52.9570 0027135 197.9550 162.0659 14.59313879839649"}}, "geometry": {"type": "Point", "coordinates": [-172.17031839000933, 67.50874663477313]}}, {"type": "Feature", "properties": {"norad_id": 36540, "name": "COSMOS 2251 DEB", "group": "cosmos-2251-debris", "lat": 58.64603431359149, "lon": -155.01103560827758, "alt_km": 702.5390766556266, "timestamp": "2025-12-14T14:39:29.766527+00:00", "meta": {"OBJECT_NAME": "COSMOS 2251 DEB", "OBJECT_ID": "1993-036BDA", "EPOCH": "2025-12-13T18:37:01.077024", "MEAN_MOTION": 14.58495892, "ECCENTRICITY": 0.00149508, "INCLINATION": 74.0294, "RA_OF_ASC_NODE": 178.5434, "ARG_OF_PERICENTER": 248.6284, "MEAN_ANOMALY": 111.3286, "EPHEMERIS_TYPE": 0, "CLASSIFICATION_TYPE": "U", "NORAD_CAT_ID": 36540, "ELEMENT_SET_NO": 999, "REV_AT_EPOCH": 86025, "BSTAR": 0.0012951395, "MEAN_MOTION_DOT": 6e-05, "MEAN_MOTION_DDOT": 0}, "tle": {"line1": "1 36540U 93036BDA 25347.77570691  .00006000  00000+0  12951-2 0  9997", "line2": "2 36540  74.0294 178.5434 0014950 248.6284 111.3286 14.58495892860259"}}, "geometry": {"type": "Point", "coordinates": [-155.01103560827758, 58.64603431359149]}}, {"type": "Feature", "properties": {"norad_id": 36550, "name": "COSMOS 2251 DEB", "group": "cosmos-2251-debris", "lat": 49.411317080573205, "lon": -151.13491849673798, "alt_km": 852.0406807793561, "timestamp": "2025-12-14T14:39:29.766539+00:00", "meta": {"OBJECT_NAME": "COSMOS 2251 DEB", "OBJECT_ID": "1993-036BDL", "EPOCH": "2025-12-12T06:53:46.055040", "MEAN_MOTION": 14.27197589, "ECCENTRICITY": 0.00783785, "INCLINATION": 74.0439, "RA_OF_ASC_NODE": 193.5589, "ARG_OF_PERICENTER": 244.3101, "MEAN_ANOMALY": 114.994, "EPHEMERIS_TYPE": 0, "CLASSIFICATION_TYPE": "U", "NORAD_CAT_ID": 36550, "ELEMENT_SET_NO": 999, "REV_AT_EPOCH": 84589, "BSTAR": 0.00090622054, "MEAN_MOTION_DOT": 2.261e-05, "MEAN_MOTION_DDOT": 0}, "tle": {"line1": "1 36550U 93036BDL 25346.28733860  .00002261  00000+0  90622-3 0  9999", "line2": "2 36550  74.0439 193.5589 0078378 244.3101 114.9940 14.27197589845891"}}, "geometry": {"type": "Point", "coordinates": [-151.13491849673798, 49.411317080573205]}}, {"type": "Feature", "properties": {"norad_id": 36551, "name": "COSMOS 2251 DEB", "group": "cosmos-2251-debris", "lat": -68.509158008595, "lon": -121.90754424409461, "alt_km": 549.8647067940119, "timestamp": "2025-12-14T14:39:29.766553+00:00", "meta": {"OBJECT_NAME": "COSMOS 2251 DEB", "OBJECT_ID": "1993-036BDM", "EPOCH": "2025-12-12T08:47:24.108864", "MEAN_MOTION": 15.02551083, "ECCENTRICITY": 0.00509575, "INCLINATION": 73.8872, "RA_OF_ASC_NODE": 15.4722, "ARG_OF_PERICENTER": 324.547, "MEAN_ANOMALY": 35.2333, "EPHEMERIS_TYPE": 0, "CLASSIFICATION_TYPE": "U", "NORAD_CAT_ID": 36551, "ELEMENT_SET_NO": 999, "REV_AT_EPOCH": 66926, "BSTAR": 0.0018916563, "MEAN_MOTION_DOT": 0.00025929, "MEAN_MOTION_DDOT": 0}, "tle": {"line1": "1 36551U 93036BDM 25346.36625126  .00025929  00000+0  18917-2 0  9996", "line2": "2 36551  73.8872  15.4722 0050957 324.5470  35.2333 15.02551083669267"}}, "geometry": {"type": "Point", "coordinates": [-121.90754424409461, -68.509158008595]}}, {"type": "Feature", "properties": {"norad_id": 36557, "name": "COSMOS 2251 DEB", "group": "cosmos-2251-debris", "lat": 68.24561065191898, "lon": 168.62567102378384, "alt_km": 641.8978755121725, "timestamp": "2025-12-14T14:39:29.766563+00:00", "meta": {"OBJECT_NAME": "COSMOS 2251 DEB", "OBJECT_ID": "1993-036BDT", "EPOCH": "2025-12-13T15:34:52.969152", "MEAN_MOTION": 14.78308726, "ECCENTRICITY": 0.00217325, "INCLINATION": 73.9776, "RA_OF_ASC_NODE": 124.4564, "ARG_OF_PERICENTER": 276.4818, "MEAN_ANOMALY": 83.3883, "EPHEMERIS_TYPE": 0, "CLASSIFICATION_TYPE": "U", "NORAD_CAT_ID": 36557, "ELEMENT_SET_NO": 999, "REV_AT_EPOCH": 33910, "BSTAR": 0.003640175, "MEAN_MOTION_DOT": 0.00026637, "MEAN_MOTION_DDOT": 0}, "tle": {"line1": "1 36557U 93036BDT 25347.64922418  .00026637  00000+0  36402-2 0  9994", "line2": "2 36557  73.9776 124.4564 0021732 276.4818  83.3883 14.78308726339109"}}, "geometry": {"type": "Point", "coordinates": [168.62567102378384, 68.24561065191898]}}, {"type": "Feature", "properties": {"norad_id": 36558, "name": "COSMOS 2251 DEB", "group": "cosmos-2251-debris", "lat": -37.699258477263676, "lon": -16.22211138592833, "alt_km": 705.5601644022245, "timestamp": "2025-12-14T14:39:29.766573+00:00", "meta": {"OBJECT_NAME": "COSMOS 2251 DEB", "OBJECT_ID": "1993-036BDU", "EPOCH": "2025-12-13T04:39:28.280448", "MEAN_MOTION": 14.5536689, "ECCENTRICITY": 0.00129076, "INCLINATION": 74.0417, "RA_OF_ASC_NODE": 153.6824, "ARG_OF_PERICENTER": 242.3004, "MEAN_ANOMALY": 117.6851, "EPHEMERIS_TYPE": 0, "CLASSIFICATION_TYPE": "U", "NORAD_CAT_ID": 36558, "ELEMENT_SET_NO": 999, "REV_AT_EPOCH": 85275, "BSTAR": 0.0014840285, "MEAN_MOTION_DOT": 6.426e-05, "MEAN_MOTION_DDOT": 0}, "tle": {"line1": "1 36558U 93036BDU 25347.19407732  .00006426  00000+0  14840-2 0  9998", "line2": "2 36558  74.0417 153.6824 0012907 242.3004 117.6851 14.55366890852758"}}, "geometry": {"type": "Point", "coordinates": [-16.22211138592833, -37.699258477263676]}}, {"type": "Feature", "properties": {"norad_id": 36559, "name": "COSMOS 2251 DEB", "group": "cosmos-2251-debris", "lat": 6.349336764741791, "lon": 8.426481350412613, "alt_km": 750.4225161071427, "timestamp": "2025-12-14T14:39:29.766583+00:00", "meta": {"OBJECT_NAME": "COSMOS 2251 DEB", "OBJECT_ID": "1993-036BDV", "EPOCH": "2025-12-13T02:29:27.239136", "MEAN_MOTION": 13.95198935, "ECCENTRICITY": 0.02600451, "INCLINATION": 74.1313, "RA_OF_ASC_NODE": 9.1868, "ARG_OF_PERICENTER": 41.9137, "MEAN_ANOMALY": 320.158, "EPHEMERIS_TYPE": 0, "CLASSIFICATION_TYPE": "U", "NORAD_CAT_ID": 36559, "ELEMENT_SET_NO": 999, "REV_AT_EPOCH": 81099, "BSTAR": 0.0040329157, "MEAN_MOTION_DOT": 7.21e-05, "MEAN_MOTION_DDOT": 0}, "tle": {"line1": "1 36559U 93036BDV 25347.10378749  .00007210  00000+0  40329-2 0  9998", "line2": "2 36559  74.1313   9.1868 0260045  41.9137 320.1580 13.95198935810992"}}, "geometry": {"type": "Point", "coordinates": [8.426481350412613, 6.349336764741791]}}, {"type": "Feature", "properties": {"norad_id": 36614, "name": "COSMOS 2251 DEB", "group": "cosmos-2251-debris", "lat": -74.00298690616182, "lon": 79.06306043945166, "alt_km": 689.1461547949566, "timestamp": "2025-12-14T14:39:29.766593+00:00", "meta": {"OBJECT_NAME": "COSMOS 2251 DEB", "OBJECT_ID": "1993-036BEC", "EPOCH": "2025-12-11T06:30:21.400992", "MEAN_MOTION": 14.60233542, "ECCENTRICITY": 0.00161993, "INCLINATION": 74.0218, "RA_OF_ASC_NODE": 177.391, "ARG_OF_PERICENTER": 247.2616, "MEAN_ANOMALY": 112.6838, "EPHEMERIS_TYPE": 0, "CLASSIFICATION_TYPE": "U", "NORAD_CAT_ID": 36614, "ELEMENT_SET_NO": 999, "REV_AT_EPOCH": 65591, "BSTAR": 0.0024222077, "MEAN_MOTION_DOT": 0.00011696, "MEAN_MOTION_DDOT": 0}, "tle": {"line1": "1 36614U 93036BEC 25345.27108103  .00011696  00000+0  24222-2 0  9998", "line2": "2 36614  74.0218 177.3910 0016199 247.2616 112.6838 14.60233542655911"}}, "geometry": {"type": "Point", "coordinates": [79.06306043945166, -74.00298690616182]}}, {"type": "Feature", "properties": {"norad_id": 36622, "name": "COSMOS 2251 DEB", "group": "cosmos-2251-debris", "lat": 71.85002218464142, "lon": -157.20267806718647, "alt_km": 680.5195977941557, "timestamp": "2025-12-14T14:39:29.766603+00:00", "meta": {"OBJECT_NAME": "COSMOS 2251 DEB", "OBJECT_ID": "1993-036BEL", "EPOCH": "2025-12-13T04:07:59.528928", "MEAN_MOTION": 14.76203873, "ECCENTRICITY": 0.00688136, "INCLINATION": 74.0135, "RA_OF_ASC_NODE": 144.6283, "ARG_OF_PERICENTER": 279.9599, "MEAN_ANOMALY": 79.3813, "EPHEMERIS_TYPE": 0, "CLASSIFICATION_TYPE": "U", "NORAD_CAT_ID": 36622, "ELEMENT_SET_NO": 999, "REV_AT_EPOCH": 66756, "BSTAR": 0.0010024349, "MEAN_MOTION_DOT": 7.182e-05, "MEAN_MOTION_DDOT": 0}, "tle": {"line1": "1 36622U 93036BEL 25347.17221677  .00007182  00000+0  10024-2 0  9990", "line2": "2 36622  74.0135 144.6283 0068813 279.9599  79.3813 14.76203873667567"}}, "geometry": {"type": "Point", "coordinates": [-157.20267806718647, 71.85002218464142]}}, {"type": "Feature", "properties": {"norad_id": 36632, "name": "COSMOS 2251 DEB", "group": "cosmos-2251-debris", "lat": 19.828373926262387, "lon": -65.17463003652004, "alt_km": 725.6245531925588, "timestamp": "2025-12-14T14:39:29.766612+00:00", "meta": {"OBJECT_NAME": "COSMOS 2251 DEB", "OBJECT_ID": "1993-036BEW", "EPOCH": "2025-12-13T13:36:30.735360", "MEAN_MOTION": 14.43181896, "ECCENTRICITY": 0.00321339, "INCLINATION": 74.0018, "RA_OF_ASC_NODE": 290.8293, "ARG_OF_PERICENTER": 38.3996, "MEAN_ANOMALY": 321.9438, "EPHEMERIS_TYPE": 0, "CLASSIFICATION_TYPE": "U", "NORAD_CAT_ID": 36632, "ELEMENT_SET_NO": 999, "REV_AT_EPOCH": 65227, "BSTAR": 0.0011350112, "MEAN_MOTION_DOT": 3.814e-05, "MEAN_MOTION_DDOT": 0}, "tle": {"line1": "1 36632U 93036BEW 25347.56702240  .00003814  00000+0  11350-2 0  9995", "line2": "2 36632  74.0018 290.8293 0032133  38.3996 321.9438 14.43181896652272"}}, "geometry": {"type": "Point", "coordinates": [-65.17463003652004, 19.828373926262387]}}]}